CCSDS_OMM_VERS = 2.0
CREATION_DATE  = 
ORIGINATOR     = 

OBJECT_NAME    = RSP-03
OBJECT_ID      = 1998-067XL
CENTER_NAME    = EARTH
REF_FRAME      = TEME
TIME_SYSTEM    = UTC
MEAN_ELEMENT_THEORY = SGP/SGP4

EPOCH          = 2026-02-10T12:44:33.081216
MEAN_MOTION    = 16.06250347
ECCENTRICITY   = .0008378
INCLINATION    = 51.6134
RA_OF_ASC_NODE = 186.1480
ARG_OF_PERICENTER = 313.0297
MEAN_ANOMALY   = 47.0013

EPHEMERIS_TYPE = 0
CLASSIFICATION_TYPE = U
NORAD_CAT_ID   = 65732
ELEMENT_SET_NO = 999
REV_AT_EPOCH   = 2262
BSTAR          = .13005E-2
MEAN_MOTION_DOT = .989379E-2
MEAN_MOTION_DDOT = .54152E-3

CCSDS_OMM_VERS = 2.0
CREATION_DATE  = 
ORIGINATOR     = 

OBJECT_NAME    = YOTSUBA-KULOVER
OBJECT_ID      = 1998-067XN
CENTER_NAME    = EARTH
REF_FRAME      = TEME
TIME_SYSTEM    = UTC
MEAN_ELEMENT_THEORY = SGP/SGP4

EPOCH          = 2026-02-09T19:03:47.774880
MEAN_MOTION    = 15.71186037
ECCENTRICITY   = .00041399
INCLINATION    = 51.6244
RA_OF_ASC_NODE = 200.8737
ARG_OF_PERICENTER = 266.2769
MEAN_ANOMALY   = 93.7756

EPHEMERIS_TYPE = 0
CLASSIFICATION_TYPE = U
NORAD_CAT_ID   = 65941
ELEMENT_SET_NO = 999
REV_AT_EPOCH   = 1910
BSTAR          = .10125499E-2
MEAN_MOTION_DOT = .132212E-2
MEAN_MOTION_DDOT = 0

CCSDS_OMM_VERS = 2.0
CREATION_DATE  = 
ORIGINATOR     = 

OBJECT_NAME    = BOTAN
OBJECT_ID      = 1998-067XP
CENTER_NAME    = EARTH
REF_FRAME      = TEME
TIME_SYSTEM    = UTC
MEAN_ELEMENT_THEORY = SGP/SGP4

EPOCH          = 2026-02-09T15:50:14.106336
MEAN_MOTION    = 15.85179997
ECCENTRICITY   = .00064461
INCLINATION    = 51.6174
RA_OF_ASC_NODE = 197.6749
ARG_OF_PERICENTER = 289.8323
MEAN_ANOMALY   = 70.1986

EPHEMERIS_TYPE = 0
CLASSIFICATION_TYPE = U
NORAD_CAT_ID   = 65942
ELEMENT_SET_NO = 999
REV_AT_EPOCH   = 1913
BSTAR          = .13980573E-2
MEAN_MOTION_DOT = .352215E-2
MEAN_MOTION_DDOT = 0

CCSDS_OMM_VERS = 2.0
CREATION_DATE  = 
ORIGINATOR     = 

OBJECT_NAME    = E-KAGAKU-1
OBJECT_ID      = 1998-067XQ
CENTER_NAME    = EARTH
REF_FRAME      = TEME
TIME_SYSTEM    = UTC
MEAN_ELEMENT_THEORY = SGP/SGP4

EPOCH          = 2026-02-09T11:27:04.026816
MEAN_MOTION    = 15.70999257
ECCENTRICITY   = .0003685
INCLINATION    = 51.6272
RA_OF_ASC_NODE = 202.5184
ARG_OF_PERICENTER = 280.4332
MEAN_ANOMALY   = 79.6250

EPHEMERIS_TYPE = 0
CLASSIFICATION_TYPE = U
NORAD_CAT_ID   = 65943
ELEMENT_SET_NO = 999
REV_AT_EPOCH   = 1905
BSTAR          = .10797182E-2
MEAN_MOTION_DOT = .140038E-2
MEAN_MOTION_DDOT = 0

CCSDS_OMM_VERS = 2.0
CREATION_DATE  = 
ORIGINATOR     = 

OBJECT_NAME    = HRC MONOBLOCK CAMERA
OBJECT_ID      = 1998-067XR
CENTER_NAME    = EARTH
REF_FRAME      = TEME
TIME_SYSTEM    = UTC
MEAN_ELEMENT_THEORY = SGP/SGP4

EPOCH          = 2026-02-09T17:14:21.115680
MEAN_MOTION    = 15.59309115
ECCENTRICITY   = .00012346
INCLINATION    = 51.6276
RA_OF_ASC_NODE = 206.3794
ARG_OF_PERICENTER = 357.5196
MEAN_ANOMALY   = 2.5791

EPHEMERIS_TYPE = 0
CLASSIFICATION_TYPE = U
NORAD_CAT_ID   = 66052
ELEMENT_SET_NO = 999
REV_AT_EPOCH   = 1802
BSTAR          = .59664469E-3
MEAN_MOTION_DOT = .47675E-3
MEAN_MOTION_DDOT = 0

CCSDS_OMM_VERS = 2.0
CREATION_DATE  = 
ORIGINATOR     = 

OBJECT_NAME    = HTV-X1
OBJECT_ID      = 2025-241A
CENTER_NAME    = EARTH
REF_FRAME      = TEME
TIME_SYSTEM    = UTC
MEAN_ELEMENT_THEORY = SGP/SGP4

EPOCH          = 2026-02-10T03:34:19.172064
MEAN_MOTION    = 15.48516896
ECCENTRICITY   = .00111024
INCLINATION    = 51.6316
RA_OF_ASC_NODE = 208.5012
ARG_OF_PERICENTER = 83.1842
MEAN_ANOMALY   = 277.0409

EPHEMERIS_TYPE = 0
CLASSIFICATION_TYPE = U
NORAD_CAT_ID   = 66174
ELEMENT_SET_NO = 999
REV_AT_EPOCH   = 51
BSTAR          = .18714395E-3
MEAN_MOTION_DOT = .9718E-4
MEAN_MOTION_DDOT = 0

CCSDS_OMM_VERS = 2.0
CREATION_DATE  = 
ORIGINATOR     = 

OBJECT_NAME    = SZ-21 MODULE
OBJECT_ID      = 2025-246C
CENTER_NAME    = EARTH
REF_FRAME      = TEME
TIME_SYSTEM    = UTC
MEAN_ELEMENT_THEORY = SGP/SGP4

EPOCH          = 2026-02-10T07:03:44.699040
MEAN_MOTION    = 15.66465298
ECCENTRICITY   = .00027
INCLINATION    = 41.4767
RA_OF_ASC_NODE = 11.7270
ARG_OF_PERICENTER = 289.3019
MEAN_ANOMALY   = 70.7530

EPHEMERIS_TYPE = 0
CLASSIFICATION_TYPE = U
NORAD_CAT_ID   = 66515
ELEMENT_SET_NO = 999
REV_AT_EPOCH   = 1377
BSTAR          = .32044E-3
MEAN_MOTION_DOT = .34158E-3
MEAN_MOTION_DDOT = 0

CCSDS_OMM_VERS = 2.0
CREATION_DATE  = 
ORIGINATOR     = 

OBJECT_NAME    = SHENZHOU-22
OBJECT_ID      = 2025-272A
CENTER_NAME    = EARTH
REF_FRAME      = TEME
TIME_SYSTEM    = UTC
MEAN_ELEMENT_THEORY = SGP/SGP4

EPOCH          = 2026-02-10T06:03:05.864544
MEAN_MOTION    = 15.59421284
ECCENTRICITY   = .00045449
INCLINATION    = 41.4685
RA_OF_ASC_NODE = 14.9543
ARG_OF_PERICENTER = 46.7906
MEAN_ANOMALY   = 313.3312

EPHEMERIS_TYPE = 0
CLASSIFICATION_TYPE = U
NORAD_CAT_ID   = 66645
ELEMENT_SET_NO = 999
REV_AT_EPOCH   = 26764
BSTAR          = .25752818E-3
MEAN_MOTION_DOT = .20678E-3
MEAN_MOTION_DDOT = 0

CCSDS_OMM_VERS = 2.0
CREATION_DATE  = 
ORIGINATOR     = 

OBJECT_NAME    = SOYUZ-MS 28
OBJECT_ID      = 2025-275A
CENTER_NAME    = EARTH
REF_FRAME      = TEME
TIME_SYSTEM    = UTC
MEAN_ELEMENT_THEORY = SGP/SGP4

EPOCH          = 2026-02-10T11:18:58.375872
MEAN_MOTION    = 15.48523328
ECCENTRICITY   = .00111
INCLINATION    = 51.6313
RA_OF_ASC_NODE = 206.9057
ARG_OF_PERICENTER = 84.3131
MEAN_ANOMALY   = 275.9122

EPHEMERIS_TYPE = 0
CLASSIFICATION_TYPE = U
NORAD_CAT_ID   = 66664
ELEMENT_SET_NO = 999
REV_AT_EPOCH   = 55211
BSTAR          = .18993E-3
MEAN_MOTION_DOT = .9872E-4
MEAN_MOTION_DDOT = 0

CCSDS_OMM_VERS = 2.0
CREATION_DATE  = 
ORIGINATOR     = 

OBJECT_NAME    = DUPLEX
OBJECT_ID      = 1998-067XS
CENTER_NAME    = EARTH
REF_FRAME      = TEME
TIME_SYSTEM    = UTC
MEAN_ELEMENT_THEORY = SGP/SGP4

EPOCH          = 2026-02-10T11:17:07.306944
MEAN_MOTION    = 15.54308712
ECCENTRICITY   = .0001317
INCLINATION    = 51.6289
RA_OF_ASC_NODE = 205.3999
ARG_OF_PERICENTER = 80.8326
MEAN_ANOMALY   = 279.2814

EPHEMERIS_TYPE = 0
CLASSIFICATION_TYPE = U
NORAD_CAT_ID   = 66906
ELEMENT_SET_NO = 999
REV_AT_EPOCH   = 1089
BSTAR          = .48216E-3
MEAN_MOTION_DOT = .31776E-3
MEAN_MOTION_DDOT = 0

CCSDS_OMM_VERS = 2.0
CREATION_DATE  = 
ORIGINATOR     = 

OBJECT_NAME    = ISS OBJECT XT
OBJECT_ID      = 1998-067XT
CENTER_NAME    = EARTH
REF_FRAME      = TEME
TIME_SYSTEM    = UTC
MEAN_ELEMENT_THEORY = SGP/SGP4

EPOCH          = 2026-02-10T10:47:30.252480
MEAN_MOTION    = 15.62011841
ECCENTRICITY   = .0001772
INCLINATION    = 51.6268
RA_OF_ASC_NODE = 203.7611
ARG_OF_PERICENTER = 255.1778
MEAN_ANOMALY   = 104.9019

EPHEMERIS_TYPE = 0
CLASSIFICATION_TYPE = U
NORAD_CAT_ID   = 66907
ELEMENT_SET_NO = 999
REV_AT_EPOCH   = 1091
BSTAR          = .11762E-2
MEAN_MOTION_DOT = .105615E-2
MEAN_MOTION_DDOT = 0

CCSDS_OMM_VERS = 2.0
CREATION_DATE  = 
ORIGINATOR     = 

OBJECT_NAME    = ISS OBJECT XU
OBJECT_ID      = 1998-067XU
CENTER_NAME    = EARTH
REF_FRAME      = TEME
TIME_SYSTEM    = UTC
MEAN_ELEMENT_THEORY = SGP/SGP4

EPOCH          = 2026-02-10T10:46:37.631424
MEAN_MOTION    = 15.62043652
ECCENTRICITY   = .0001635
INCLINATION    = 51.6268
RA_OF_ASC_NODE = 203.7551
ARG_OF_PERICENTER = 262.2447
MEAN_ANOMALY   = 97.8362

EPHEMERIS_TYPE = 0
CLASSIFICATION_TYPE = U
NORAD_CAT_ID   = 66908
ELEMENT_SET_NO = 999
REV_AT_EPOCH   = 1091
BSTAR          = .11731E-2
MEAN_MOTION_DOT = .105461E-2
MEAN_MOTION_DDOT = 0

