RSP-03                  
1 65732U 98067XL  26041.53093844  .00989379  54152-3  13005-2 0  9998
2 65732  51.6134 186.1480 0008378 313.0297  47.0013 16.06250347 22625
YOTSUBA-KULOVER         
1 65941U 98067XN  26040.79430295  .00132212  00000+0  10125-2 0  9997
2 65941  51.6244 200.8737 0004139 266.2769  93.7756 15.71186037 19108
BOTAN                   
1 65942U 98067XP  26040.65988549  .00352215  00000+0  13981-2 0  9993
2 65942  51.6174 197.6749 0006446 289.8323  70.1986 15.85179997 19136
E-KAGAKU-1              
1 65943U 98067XQ  26040.47712994  .00140038  00000+0  10797-2 0  9993
2 65943  51.6272 202.5184 0003685 280.4332  79.6250 15.70999257 19056
HRC MONOBLOCK CAMERA    
1 66052U 98067XR  26040.71829995  .00047675  00000+0  59664-3 0  9992
2 66052  51.6276 206.3794 0001234 357.5196   2.5791 15.59309115 18029
HTV-X1                  
1 66174U 25241A   26041.14883301  .00009718  00000+0  18714-3 0  9997
2 66174  51.6316 208.5012 0011102  83.1842 277.0409 15.48516896   515
SZ-21 MODULE            
1 66515U 25246C   26041.29426735  .00034158  00000+0  32044-3 0  9999
2 66515  41.4767  11.7270 0002700 289.3019  70.7530 15.66465298 13775
SHENZHOU-22             
1 66645U 25272A   26041.25215121  .00020678  00000+0  25753-3 0  9994
2 66645  41.4685  14.9543 0004544  46.7906 313.3312 15.59421284267644
SOYUZ-MS 28             
1 66664U 25275A   26041.47150898  .00009872  00000+0  18993-3 0  9992
2 66664  51.6313 206.9057 0011100  84.3131 275.9122 15.48523328552114
DUPLEX                  
1 66906U 98067XS  26041.47022346  .00031776  00000+0  48216-3 0  9995
2 66906  51.6289 205.3999 0001317  80.8326 279.2814 15.54308712 10893
ISS OBJECT XT           
1 66907U 98067XT  26041.44965570  .00105615  00000+0  11762-2 0  9997
2 66907  51.6268 203.7611 0001772 255.1778 104.9019 15.62011841 10914
ISS OBJECT XU           
1 66908U 98067XU  26041.44904666  .00105461  00000+0  11731-2 0  9992
2 66908  51.6268 203.7551 0001635 262.2447  97.8362 15.62043652 10914
